[{"OBJECT_NAME":"STARLINK-5262","OBJECT_ID":"2022-141BC","EPOCH":"2026-03-09T02:16:50.050272","MEAN_MOTION":15.08831755,"ECCENTRICITY":0.00012707,"INCLINATION":53.2185,"RA_OF_ASC_NODE":356.3971,"ARG_OF_PERICENTER":107.8011,"MEAN_ANOMALY":252.312,"EPHEMERIS_TYPE":0,"CLASSIFICATION_TYPE":"U","NORAD_CAT_ID":54207,"ELEMENT_SET_NO":999,"REV_AT_EPOCH":18591,"BSTAR":-4.3736485e-5,"MEAN_MOTION_DOT":-9.84e-6,"MEAN_MOTION_DDOT":0},{"OBJECT_NAME":"CZ-6A DEB","OBJECT_ID":"2024-140ZM","EPOCH":"2026-03-09T08:08:19.885920","MEAN_MOTION":14.97554426,"ECCENTRICITY":0.01813088,"INCLINATION":90.2734,"RA_OF_ASC_NODE":12.4689,"ARG_OF_PERICENTER":116.477,"MEAN_ANOMALY":245.5188,"EPHEMERIS_TYPE":0,"CLASSIFICATION_TYPE":"U","NORAD_CAT_ID":61455,"ELEMENT_SET_NO":999,"REV_AT_EPOCH":8308,"BSTAR":0.00078895456,"MEAN_MOTION_DOT":0.00012969,"MEAN_MOTION_DDOT":0}]
